,ApplicationID,LicenseNumber,LicenseType,ApplicationorRenewal,BusinessName,Status,StartDate,EndDate,LicenseCategory,ApplicationCategory,Street,City,Zip,ContactPhone,LicenseExpirationDate,LicenseStatus,LicenseCreationDate
104620,1066-2017-RHIC,1294131-DCA,Business,Renewal,PEYKO TZENOV,Issued,01/09/2017,01/10/2017,Home Improvement Contractor,Special,RESERVOIR OVAL E,BRONX,10467,9178047161,02/28/2021,Active,07/30/2008
168507,1164-2019-RDPD,1472251-DCA,Business,Renewal,AMERICAN EAST PHARMACY INC.,Issued,01/09/2019,01/10/2019,Dealer In Products,Basic,DIVISION ST,NEW YORK,10002,2129251900,03/15/2021,Active,08/26/2013
107987,33701-2016-RELE,2025971-DCA,Business,Renewal,LUCAS ELECTRONICS INC,Issued,12/31/2016,01/10/2017,Electronics Store,Basic,MANHATTAN AVE,BROOKLYN,11222,347-987-3235,12/31/2020,Active,07/22/2015
102844,34278-2018-RELE,2047043-DCA,Business,Renewal,ELITE WIRELESS GROUP NY LLC,Issued,12/31/2018,01/08/2019,Electronics Store,Basic,CHURCH AVE,BROOKLYN,11226,718-484-7746,12/31/2020,Active,01/05/2017
49008,949-2017-RHIC,1338463-DCA,Business,Renewal,"TAORMINA, MICHAEL",Issued,01/06/2017,01/07/2017,Home Improvement Contractor,Special,CENTERPORT RD,GREENLAWN,11740,6312362914,02/28/2019,Inactive,11/12/2009
23039,348-2017-RDEB,1325842-DCA,Business,Renewal,CREDIGY RECEIVABLES INC.,Issued,01/09/2017,01/11/2017,Debt Collection Agency,Basic,PARADISE RD,LAS VEGAS,89109,702-543-3036,01/31/2021,Active,07/13/2009
56601,18502-2019-RHIC,2053949-DCA,Business,Renewal,LAGRECA CONTRACTING INC.,Issued,04/24/2019,04/26/2019,Home Improvement Contractor,Special,OCEANPOINT AVE,CEDARHURST,11516,5163822545,02/28/2021,Active,06/05/2017
176442,20079-2017-AHIC,2064450-DCA,Business,Application,PLATINUM HOME IMPROVEMENT CORP,Issued,01/05/2018,01/06/2018,Home Improvement Contractor,Special,73RD ST,BROOKLYN,11209,7189864641,02/28/2021,Active,01/05/2018
124272,3767-2016-RSLS,0991308-DCA,Business,Renewal,"J.W. MARKET, INC.",Issued,03/16/2016,03/17/2016,Stoop Line Stand,Basic,SULLIVAN ST,NEW YORK,10012,212-228-9303,03/31/2020,Active,02/02/2000
150670,18984-2019-RHIC,1335917-DCA,Business,Renewal,MICROECOLOGIES INC.,Issued,04/30/2019,05/01/2019,Home Improvement Contractor,Special,MADISON AVE,NEW YORK,10035,2127553265,02/28/2021,Active,10/13/2009
186046,5029-2019-AADT,2085304-DCA,Business,Application,WONDERLAND MIDWAY CORP.,Issued,05/01/2019,05/02/2019,Amusement Device Temporary,Basic,NORTHERN BLVD,FLUSHING,11358,7189289920,05/19/2019,Inactive,05/01/2019
194737,337-2019-RELE,1333055-DCA,Business,Renewal,UNIVERSAL ELECTRONICS & APPLIANCES INC.,Issued,01/03/2019,01/04/2019,Electronics Store,Basic,JAMAICA AVE,JAMAICA,11432,7182301214,12/31/2020,Active,09/15/2009
20580,18197-2017-ALAU,2064705-DCA,Business,Application,WEALTHY LAUNDROMAT INC.,Issued,12/27/2017,01/10/2018,Laundries,Basic,FORT HAMILTON PKWY,BROOKLYN,11219,9179606088,12/31/2019,Inactive,01/09/2018
163456,951-2017-RHIC,1003097-DCA,Business,Renewal,LIME-LIGHT CONSTRUCTION CORP,Issued,01/06/2017,01/07/2017,Home Improvement Contractor,Special,128TH ST,SOUTH OZONE PARK,11420,7188355657,02/28/2021,Active,06/27/2011
24272,18870-2017-ALAU,2064599-DCA,Business,Application,OLD BROADWAY LAUNDROMAT CORP,Issued,12/01/2017,01/09/2018,Laundries,Basic,BROADWAY,NEW YORK,10031,2128767600,12/31/2021,Active,01/08/2018
2897,1208-2017-RSDR,0901954-DCA,Business,Renewal,"PERLMUTTER, LEON",Issued,01/09/2017,01/10/2017,Scale Dealer Repairer,Basic,LITTLE NECK PKWY,LITTLE NECK,11362,7182793528,02/28/2021,Active,01/17/2007
131302,30919-2016-RHIC,1227603-DCA,Business,Renewal,"NATHOO, HILTON",Issued,01/11/2017,01/12/2017,Home Improvement Contractor,Special,114TH ST,RICHMOND HILL,11418,9176585866,02/28/2021,Active,05/19/2006
194957,24254-2016-RELE,1214200-DCA,Business,Renewal,"THE VEER NY ENTERPRISE, INC",Issued,11/28/2016,11/29/2016,Electronics Store,Basic,GREENPOINT AVE,SUNNYSIDE,11104,7187066020,12/31/2020,Active,11/09/2005
114236,23657-2016-RHIC,2015794-DCA,Business,Renewal,FALCONE LANDSCAPE & CONSTRUCTION CONTRACTORS LLC,Issued,11/26/2016,11/27/2016,Home Improvement Contractor,Special,WILLOW AVE,STATEN ISLAND,10305,7182738665,02/28/2021,Active,11/24/2014
170596,7279-2016-RPWN,1374833-DCA,Business,Renewal,ANCOR GOLD INC,Issued,05/18/2016,05/19/2016,Pawnbroker,Basic,WALL ST,NEW YORK,10005,2123821020,04/30/2020,Active,10/19/2010
35719,24786-2016-RHIC,1309315-DCA,Business,Renewal,WILMAN CUSTOM DESIGN LLC,Issued,11/29/2016,11/30/2016,Home Improvement Contractor,Special,123RD ST,COLLEGE POINT,11356,7187973073,02/28/2021,Active,02/13/2009
107509,1007-2019-RHIC,1260209-DCA,Business,Renewal,CENTRAL TILE IMPORT LTD.,Issued,01/08/2019,01/09/2019,Home Improvement Contractor,Special,HYLAN BLVD,STATEN ISLAND,10305,7189816700,02/28/2021,Active,06/29/2007
163131,1107-2019-RELE,1379821-DCA,Business,Renewal,"DYNAMIC CELLULAR 37TH STREET, INC.",Issued,01/08/2019,01/09/2019,Electronics Store,Basic,W 37TH ST,NEW YORK,10018,6463548577,12/31/2020,Active,12/30/2010
57160,18887-2019-RHIC,2056403-DCA,Business,Renewal,DANNY MADDEN,Issued,04/30/2019,05/01/2019,Home Improvement Contractor,Special,ROGER AVE,INWOOD,11096,347-268-4282,02/28/2021,Active,07/31/2017
143918,31304-2016-RHIC,1394089-DCA,Business,Renewal,PTU CONSTRUCTION INC.,Issued,12/16/2016,01/07/2017,Home Improvement Contractor,Special,E PENN ST,LONG BEACH,11561,9178543414,02/28/2021,Active,05/27/2011
25701,26254-2017-RSWC,1251386-DCA,Business,Renewal,L & J BRAZIL RESTAURANT INC.,Issued,09/06/2017,09/07/2017,Sidewalk Cafe,Special,W 46TH ST,NEW YORK,10036,2126439271,09/15/2021,Active,04/07/2007
111671,32164-2018-RHIC,2076407-DCA,Business,Renewal,GOOD FRIENDS CONSTRUCTION OF NY INC,Issued,01/07/2019,01/08/2019,Home Improvement Contractor,Special,12TH AVE,BROOKLYN,11219,718 600-1024,02/28/2021,Active,07/31/2018
142625,3289-2019-AEHD,2083769-DCA,Business,Application,"ADEDOKUN, SAMSON",Issued,03/26/2019,03/28/2019,Electronic & Appliance Service,Basic,W 116TH ST,NEW YORK,10026,3479983161,06/30/2020,Active,03/27/2019
180970,305-2019-RTRD,1474034-DCA,Business,Renewal,BAYSIDE ENTERPRISES INC.,Issued,01/03/2019,01/04/2019,Tobacco Retail Dealer,Basic,HORACE HARDING EXPY,OAKLAND GARDENS,11364,718-423-6860,12/31/2020,Active,09/19/2013
142552,1261-2017-RHIC,1445390-DCA,Business,Renewal,": AVILA-CASTILLO, MACARIO & REYES, LORENZO",Issued,01/09/2017,01/12/2017,Home Improvement Contractor,Special,LONGDALE ST,STATEN ISLAND,10314,3472253093,02/28/2019,Inactive,09/20/2012
189570,1182-2017-RHIC,0677845-DCA,Business,Renewal,GAS AUTOMOTIC SYSTEMS CORP.,Issued,01/09/2017,01/10/2017,Home Improvement Contractor,Special,KINGS HWY,BROOKLYN,11214,7182367686,02/28/2021,Active,01/02/2003
144118,764-2017-RHIC,0903642-DCA,Business,Renewal,"HUNT MCNAMEE, INC.",Issued,01/05/2017,01/06/2017,Home Improvement Contractor,Special,LINCOLN WALK,BREEZY POINT,11697,7189450609,02/28/2021,Active,11/14/2002
25135,1022-2017-RHIC,1219315-DCA,Business,Renewal,KING KONG G/C INC.,Issued,01/08/2017,01/12/2017,Home Improvement Contractor,Special,3RD AVE,BROOKLYN,11215,7185950330,02/28/2021,Active,02/15/2006
24504,20280-2017-ALAU,2064587-DCA,Business,Application,JJB CLEANING CORP.,Issued,12/28/2017,01/09/2018,Laundries,Basic,BROADWAY,NEW YORK,10031,212-283-2773,12/31/2019,Inactive,01/08/2018
156596,14723-2019-RPWN,1221783-DCA,Business,Renewal,METRO PAWN INC.,Issued,03/20/2019,03/27/2019,Pawnbroker,Basic,S CONDUIT AVE,SPRINGFIELD GARDENS,11413,7189497296,04/30/2020,Active,03/20/2008
160928,15655-2019-RHIC,2048187-DCA,Business,Renewal,RICK'S CONSTRUCTION & IRONWORKS INC,Issued,03/26/2019,03/27/2019,Home Improvement Contractor,Special,REMINGTON ST,JAMAICA,11435,7185267037,02/28/2021,Active,02/08/2017
179371,2805-2019-RHIC,1232979-DCA,Business,Renewal,"MOWLA, RAFIQUL MD",Issued,04/25/2019,04/26/2019,Home Improvement Contractor,Special,BAY 8TH ST,BROOKLYN,11228,6466439983,02/28/2021,Active,07/14/2006
101312,1081-2017-RELE,2008955-DCA,Business,Renewal,WIRELESS EXPERTS INC,Issued,01/09/2017,01/10/2017,Electronics Store,Basic,168TH ST,JAMAICA,11432,7182061234,12/31/2020,Active,05/30/2014
193135,11937-2019-RGAR,1026633-DCA,Business,Renewal,403 LAFAYETTE LLC,Issued,02/27/2019,03/28/2019,Garage,Basic,LAFAYETTE ST,NEW YORK,10003,2122541263,03/31/2021,Active,01/31/2000
109094,1521-2017-RHIC,1321325-DCA,Business,Renewal,HENG YIP CONSTRUCTION CORPORATION,Issued,01/11/2017,01/12/2017,Home Improvement Contractor,Special,HESTER ST,NEW YORK,10002,2129258396,02/28/2021,Active,06/10/2009
120499,30336-2016-RDEB,1006315-DCA,Business,Renewal,DELTA MANAGEMENT ASSOCIATES INC,Issued,01/05/2017,01/06/2017,Debt Collection Agency,Basic,EVERETT AVE,CHELSEA,02150,6178849444,01/31/2021,Active,04/12/1999
139402,520-2014-RCRD,1115271-DCA,Business,Renewal,YO MIN INC.,Issued,01/04/2014,01/05/2014,Tobacco Retail Dealer,Basic,8TH AVE,BROOKLYN,11220,718-765-0888,12/31/2015,Inactive,07/15/2002
129021,15844-2017-ASHG,2061942-DCA,Business,Application,ON POINT AUTOMOTIVE LLC,Issued,11/03/2017,11/30/2017,Secondhand Dealer - General,Basic,MANIDA ST,BRONX,10474,7184503530,07/31/2019,Inactive,11/29/2017
152235,18041-2019-RHIC,1160366-DCA,Business,Renewal,"JIMENEZ, JR. EFRAIN",Issued,04/17/2019,05/02/2019,Home Improvement Contractor,Special,5TH AVE,NEW YORK,10017,2129180650,02/28/2021,Active,02/27/2004
141410,1522-2017-RHIC,1328865-DCA,Business,Renewal,RB PROFESSIONAL DESIGN & CONSTRUCTION CORP.,Issued,01/11/2017,01/12/2017,Home Improvement Contractor,Special,WALTON AVE,BRONX,10453,2129231617,02/28/2019,Inactive,08/12/2009
37395,1502-2017-RHIC,0979341-DCA,Business,Renewal,ATLANTIC CONTRACTING OF NEW YORK INC,Issued,01/11/2017,01/12/2017,Home Improvement Contractor,Special,KNOLLS DR N,NEW HYDE PARK,11040,7183317581,02/28/2021,Active,02/19/1998
151260,29792-2016-RHIC,1270169-DCA,Business,Renewal,"L & Z RESTORATION, CORP.",Issued,12/13/2016,01/12/2017,Home Improvement Contractor,Special,TROUTMAN ST,BROOKLYN,11237,7183834131,02/28/2021,Active,10/11/2007
156882,1330-2017-RHIC,0815829-DCA,Business,Renewal,EDELSTEIN ROOFING CORP.,Issued,01/10/2017,01/11/2017,Home Improvement Contractor,Special,E 22ND ST,BROOKLYN,11229,7182517090,02/28/2021,Active,11/12/1996
193049,32039-2016-RELE,2017853-DCA,Business,Renewal,"METRO169, INC.",Issued,12/21/2016,01/10/2017,Electronics Store,Basic,HILLSIDE AVE,JAMAICA,11432,3478497684,12/31/2018,Inactive,02/02/2015
84656,17552-2019-RADO,2069370-DCA,Business,Renewal,SEND IN THE CLOWNS ENTERTAINMENT CORP.,Issued,04/11/2019,04/12/2019,Amusement Device Portable,Special,NASSAU TERMINAL RD,NEW HYDE PARK,11040,5163541515,03/15/2020,Active,04/12/2018
60971,14753-2019-RHIC,0925047-DCA,Business,Renewal,"DESANTO, MICHAEL",Issued,03/20/2019,03/21/2019,Home Improvement Contractor,Special,BLACKBURN PL,SUMMIT,07901,9085980411,02/28/2021,Active,02/07/2003
136345,34324-2018-RELE,2078809-DCA,Business,Renewal,HUESOCELL INC,Issued,12/31/2018,01/08/2019,Electronics Store,Basic,JUNCTION BLVD,CORONA,11368,9293959859,12/31/2020,Active,10/04/2018
102318,12848-2016-RNWS,1294354-DCA,Business,Renewal,"SAPAN, MAHMUD S",Issued,09/23/2016,09/23/2016,Newsstand,Special,7 AVENUE,NEW YORK,10011,917-445-6121,09/30/2020,Active,08/01/2008
149947,756-2017-RHIC,1330271-DCA,Business,Renewal,AP CONSTRUCTION INC.,Issued,01/05/2017,01/06/2017,Home Improvement Contractor,Special,59TH ST,BROOKLYN,11219,7188540628,02/28/2021,Active,08/25/2009
11877,28610-2016-AHIC,2047247-DCA,Business,Application,"DONALDSON, VERON",Issued,01/09/2017,01/11/2017,Home Improvement Contractor,Special,ESSEN DR,AMITYVILLE,11701,5166070526,02/28/2019,Inactive,01/10/2017
147610,515-2017-RHIC,1213658-DCA,Business,Renewal,"T SQUARE CONTRACTING, LTD.",Issued,01/04/2017,01/11/2017,Home Improvement Contractor,Special,BAY RIDGE AVE,BROOKLYN,11220,7186792916,02/28/2021,Active,07/10/2007
193082,25-2017-RELE,2026466-DCA,Business,Renewal,TECH SOLUTIONS & FIX IT WIRELESS CORP,Issued,01/02/2017,01/11/2017,Electronics Store,Basic,AMSTERDAM AVE,NEW YORK,10032,6464845392,12/31/2018,Inactive,07/31/2015
157793,18898-2019-RHIC,2050709-DCA,Business,Renewal,CHRISTINE WHYTE & LAWERENCE WHYTE,Issued,04/30/2019,05/01/2019,Home Improvement Contractor,Special,HERING AVE,BRONX,10469,3475247614,02/28/2021,Active,04/05/2017
39053,31870-2016-RHIC,2022150-DCA,Business,Renewal,RAMRICO INC,Issued,01/09/2017,01/10/2017,Home Improvement Contractor,Special,HIGH HILL RD,TUXEDO PARK,10987,2014474455,02/28/2021,Active,05/05/2015
3108,13825-2016-RPDC,1338139-DCA,Business,Renewal,"NEW YORK PEDICABS, INC.",Issued,10/12/2016,01/06/2017,Pedicab Business,Special,CHARLES ST,NEW YORK,10014,9176280205,11/01/2020,Active,10/10/2012
98565,2919-2017-AEHD,2049688-DCA,Business,Application,"AL-JANNAT, INC.",Issued,03/09/2017,03/18/2017,Electronic & Appliance Service,Basic,LAGUARDIA PL,NEW YORK,10012,212-673-5555,06/30/2020,Active,03/17/2017
166791,905-2017-RHIC,2023298-DCA,Business,Renewal,LIBERTY GENERAL CONSTRUCTION CORP OF NEW YORK INC,Issued,01/06/2017,01/07/2017,Home Improvement Contractor,Special,VAN NEST AVE,BRONX,10460,6462267073,02/28/2021,Active,05/26/2015
194787,18949-2019-RHIC,2012186-DCA,Business,Renewal,IDEAS CONSTRUCTION CORP,Issued,04/30/2019,05/01/2019,Home Improvement Contractor,Special,SANFORD AVE,FLUSHING,11358,6462797848,02/28/2021,Active,08/19/2014
124743,19461-2016-RHIC,1380884-DCA,Business,Renewal,ALADDIN PLUMBING CORP.,Issued,01/05/2017,01/06/2017,Home Improvement Contractor,Special,5TH AVE,BROOKLYN,11215,7187834621,02/28/2021,Active,01/18/2011
180403,1467-2017-RHIC,1240992-DCA,Business,Renewal,"ERGUL CONTRACTING, INC.",Issued,01/11/2017,01/12/2017,Home Improvement Contractor,Special,E 17TH ST,BROOKLYN,11230,7183771943,02/28/2021,Active,01/31/2008
54508,865-2017-RHIC,2034512-DCA,Business,Renewal,PLATINUM PAINTING CONTRACTOR INC,Issued,01/06/2017,01/07/2017,Home Improvement Contractor,Special,STORMYTOWN RD,OSSINING,10562,9143565100,02/28/2021,Active,03/16/2016
195415,33271-2016-RELE,2020911-DCA,Business,Renewal,ICELL INCORPORATED,Issued,12/28/2016,01/06/2017,Electronics Store,Basic,MERRICK BLVD,LAURELTON,11413,5162100055,12/31/2018,Inactive,04/13/2015
98819,28637-2016-ASLS,2046744-DCA,Business,Application,LITTLE REYES LLC,Issued,12/19/2016,12/23/2016,Stoop Line Stand,Basic,WESTCHESTER AVE,BRONX,10472,3477266279,03/31/2020,Active,12/22/2016
175996,948-2017-RHIC,2038656-DCA,Business,Renewal,Fence Plaza Corp,Issued,01/06/2017,01/07/2017,Home Improvement Contractor,Special,ROGERS AVE,BROOKLYN,11226,7184692200,02/28/2021,Active,06/06/2016
133270,33625-2016-RELE,1403706-DCA,Business,Renewal,NB NETWORK SOLUTIONS INC.,Issued,12/30/2016,01/07/2017,Electronics Store,Basic,BEDFORD PARK BLVD E,BRONX,10468,7187086248,12/31/2020,Active,08/10/2011
146722,27948-2016-AGAR,2046301-DCA,Business,Application,ASTORIA CENTRAL PARKING LLC,Issued,03/30/2017,12/08/2016,Garage,Basic,31ST ST,ASTORIA,11106,7544447275,03/31/2021,Active,12/08/2016
156303,28282-2016-RHIC,1288127-DCA,Business,Renewal,ABBA CONSTRUCTION LLC,Issued,12/08/2016,01/06/2017,Home Improvement Contractor,Special,W 99TH ST,NEW YORK,10025,9175364939,02/28/2021,Active,06/13/2013
98139,1183-2019-RELE,2050343-DCA,Business,Renewal,"AMERITEL OF 18TH AVE BROOKLYN, LLC",Issued,01/09/2019,01/10/2019,Electronics Store,Basic,18TH AVE,BROOKLYN,11214,7188261111,12/31/2020,Active,03/30/2017
105581,4193-2019-AHIC,2085171-DCA,Business,Application,ATTARI CONSTRUCTION INC.,Issued,04/15/2019,04/26/2019,Home Improvement Contractor,Special,DITMAS AVE,BROOKLYN,11218,718 775-0148,02/28/2021,Active,04/25/2019
150494,1097-2017-RHIC,2028349-DCA,Business,Renewal,Standard Builders Inc,Issued,01/09/2017,01/10/2017,Home Improvement Contractor,Special,ARNOW AVE,BRONX,10467,917-310-2100,02/28/2021,Active,09/14/2015
175388,24162-2017-RSHG,0690564-DCA,Business,Renewal,"JULIUS COHEN JEWELER, INC.",Issued,09/06/2017,09/07/2017,Secondhand Dealer - General,Basic,RICHARDSON ST,BROOKLYN,11222,2123713050,07/31/2021,Active,08/13/2003
115258,7099-2017-RHIC,2043272-DCA,Business,Renewal,"CHARLES, KEION",Issued,02/28/2017,03/01/2017,Home Improvement Contractor,Special,PACIFIC ST,BROOKLYN,11216,3477926169,02/28/2019,Inactive,09/02/2016
108835,1052-2017-RHIC,1396148-DCA,Business,Renewal,ALLIED FLOORING INC.,Issued,01/09/2017,01/10/2017,Home Improvement Contractor,Special,CROWN AVE,STATEN ISLAND,10312,6469968687,02/28/2021,Active,06/13/2011
199929,1215-2019-RDPD,2036732-DCA,Business,Renewal,ORTHOSERVE INC,Issued,01/09/2019,01/10/2019,Dealer In Products,Basic,WEBSTER AVE,BRONX,10458,718-618-7503,03/15/2021,Active,04/28/2016
138172,528-2019-RELE,1302418-DCA,Business,Renewal,"SALEEM, NOORALI",Issued,01/04/2019,01/08/2019,Electronics Store,Basic,BROADWAY,NEW YORK,10001,7185678540,12/31/2020,Inactive,10/17/2008
47309,942-2017-RHIC,2024882-DCA,Business,Renewal,"SAVAGE, DAVID J",Issued,01/06/2017,01/07/2017,Home Improvement Contractor,Special,STATE ROUTE 22,AUSTERLITZ,12017,5183923349,02/28/2021,Active,06/25/2015
46653,1046-2017-RHIC,2033223-DCA,Business,Renewal,CHOUDHRY BUILDERS INC,Issued,01/09/2017,01/10/2017,Home Improvement Contractor,Special,238TH ST,ELMONT,11003,5162632191,02/28/2021,Active,02/11/2016
99159,17050-2016-RHIC,2010232-DCA,Business,Renewal,G.M Diamond's Construction LLC,Issued,01/05/2017,01/06/2017,Home Improvement Contractor,Special,129TH ST,KEW GARDENS,11415,347-622-9334,02/28/2021,Active,07/02/2014
190503,6389-2017-RHIC,2021556-DCA,Business,Renewal,Folor Inc.,Issued,03/22/2017,03/23/2017,Home Improvement Contractor,Special,W 45TH ST,NEW YORK,10036,6464227536,02/28/2021,Active,04/23/2015
45359,33366-2016-RDEB,2038586-DCA,Business,Renewal,"Pacific Union Financial, LLC",Issued,01/09/2017,01/10/2017,Debt Collection Agency,Basic,BENT BRANCH DR,IRVING,75063,9728273600,01/31/2019,Inactive,06/02/2016
158299,933-2019-RHIC,2060144-DCA,Business,Renewal,"HUDSON WOODWORKERS, LLC",Issued,01/08/2019,01/09/2019,Home Improvement Contractor,Special,CLAREMONT AVE,NEW YORK,10027,7185858120,02/28/2021,Active,11/01/2017
107368,28989-2016-AHIC,2047126-DCA,Business,Application,"LADINO, JUAN",Issued,01/03/2017,01/07/2017,Home Improvement Contractor,Special,AVENUE O,BROOKLYN,11204,646-542-4728,02/28/2021,Active,01/06/2017
116976,9893-2019-RHIC,1258929-DCA,Business,Renewal,"ARTENOVA OF NEW YORK, LTD.",Denied,02/20/2019,03/26/2019,Home Improvement Contractor,Special,Norman Ave,BROOKLYN,11222,7183836790,02/28/2019,Inactive,06/18/2007
99614,1377-2017-RELE,2006760-DCA,Business,Renewal,MYRTLE ELECTRONICS & REPAIR INC,Issued,01/10/2017,01/11/2017,Electronics Store,Basic,MYRTLE AVE,BROOKLYN,11237,718-418-8484,12/31/2018,Inactive,04/23/2014
163605,42-2017-RELE,2014483-DCA,Business,Renewal,NEW FANTASY ACCESSORIES INC,Issued,01/02/2017,01/11/2017,Electronics Store,Basic,FULTON ST,BROOKLYN,11208,7182772377,12/31/2020,Active,10/10/2014
43207,560-2017-RDEB,1023685-DCA,Business,Renewal,"AUDIT SYSTEMS, INC.",Issued,01/05/2017,01/06/2017,Debt Collection Agency,Basic,ULMERTON RD,CLEARWATER,33762,8005151144,01/31/2021,Active,11/18/1999
137725,18186-2019-RHIC,1468224-DCA,Business,Renewal,PATRICK WEISEL LANDSCAPE DESIGN LLC,Issued,04/26/2019,04/27/2019,Home Improvement Contractor,Special,44TH AVE,LONG ISLAND CITY,11101,2127998133,02/28/2021,Active,06/26/2013
106149,22610-2018-RTRD,1045212-DCA,Business,Renewal,"J.W. MARKET, INC.",Issued,10/25/2018,10/26/2018,Tobacco Retail Dealer,Basic,SULLIVAN ST,NEW YORK,10012,212-228-9303,12/31/2020,Active,12/01/2000
97432,19024-2019-RADO,1174451-DCA,Business,Renewal,"N.Y. PARTY WORKS, INC.",Issued,04/30/2019,05/01/2019,Amusement Device Portable,Special,W JEFRYN BLVD,DEER PARK,11729,6315011414,03/15/2020,Active,04/14/2006
36641,12645-2016-ASLS,2044674-DCA,Business,Application,HAR SIDDHI CORPORATION,Issued,10/13/2016,10/14/2016,Stoop Line Stand,Basic,JUNCTION BLVD,CORONA,11368,718-429-1018,03/31/2022,Active,10/13/2016
132512,33302-2016-RHIC,1271234-DCA,Business,Renewal,A I N CONTRACTING CORP.,Issued,12/28/2016,01/06/2017,Home Improvement Contractor,Special,LAKE ST,BROOKLYN,11223,7186481777,02/28/2021,Active,10/24/2007
125827,33461-2016-RELE,2034718-DCA,Business,Renewal,SM COMMUNICATION INC.,Issued,12/29/2016,01/10/2017,Electronics Store,Basic,E 176TH ST,BRONX,10453,9174129966,12/31/2020,Active,03/22/2016
191349,23625-2016-RHIC,1217377-DCA,Business,Renewal,BENNY'S CONTRACTING INC.,Issued,01/05/2017,01/06/2017,Home Improvement Contractor,Special,FR CAPODANNO BLVD,STATEN ISLAND,10305,7187200331,02/28/2021,Active,01/11/2006
29747,26300-2017-RSWC,1249523-DCA,Business,Renewal,AKRAM RESTAURANT MANAGEMENT INC.,Issued,09/07/2017,09/07/2017,Sidewalk Cafe,Special,MULBERRY ST,NEW YORK,10013,2123439065,04/14/2020,Active,03/08/2007
154488,4696-2019-ASLS,2085124-DCA,Business,Application,HAR HAR PHARMACY CORP,Issued,04/23/2019,04/26/2019,Stoop Line Stand,Basic,103RD ST,CORONA,11368,7187794450,03/31/2020,Active,04/25/2019
101038,1086-2017-RHIC,1296484-DCA,Business,Renewal,ACCORD ENTERPRISE CORP.,Issued,01/09/2017,01/12/2017,Home Improvement Contractor,Special,BRYANT AVE,STATEN ISLAND,10306,7183514780,02/28/2021,Active,08/20/2008
49990,707-2017-RHIC,1367306-DCA,Business,Renewal,LAPOLLA METRO INC.,Issued,01/05/2017,01/06/2017,Home Improvement Contractor,Special,TRADE ZONE DR,RONKONKOMA,11779,6312075655,02/28/2021,Active,08/18/2010
173063,33097-2018-RHIC,2071835-DCA,Business,Renewal,MATRI CONSTRUCTION INC,Issued,01/04/2019,01/05/2019,Home Improvement Contractor,Special,30TH AVE,EAST ELMHURST,11370,9294626766,02/28/2021,Active,05/24/2018
130585,22615-2017-RSHG,1090570-DCA,Business,Renewal,NORTH SHORE COLLISION CORP.,Issued,07/19/2017,07/20/2017,Secondhand Dealer - General,Basic,32ND AVE,FLUSHING,11354,7184612224,07/31/2021,Active,07/07/2003
155725,24047-2016-RHIC,1250167-DCA,Business,Renewal,GHC CONSTRUCTION INC.,Issued,01/10/2017,01/11/2017,Home Improvement Contractor,Special,31ST AVENUE,ASTORIA,11106,7182677819,02/28/2021,Active,10/30/2009
137002,11381-2017-ASHG,2057716-DCA,Business,Application,1 MI TALLER CORP.,Issued,08/24/2017,09/01/2017,Secondhand Dealer - General,Basic,70TH ST,WOODSIDE,11377,7184247289,07/31/2021,Active,08/31/2017
201582,34453-2018-RELE,1467108-DCA,Business,Renewal,BONANZA ELECTRONICS LLC,Issued,12/31/2018,01/08/2019,Electronics Store,Basic,E 170TH ST,BRONX,10452,7184441216,12/31/2020,Active,06/13/2013
191778,9455-2015-RHIC,1392407-DCA,Business,Renewal,"SIMONELLI CONSTRUCTION CO., LLC",Issued,03/25/2015,03/26/2015,Home Improvement Contractor,Special,58TH AVE,FRESH MEADOWS,11365,9177505591,02/28/2017,Inactive,05/17/2011
145172,10300-2015-RHIC,1368990-DCA,Business,Renewal,"CITY SUBURB, INC.",Issued,03/03/2015,03/04/2015,Home Improvement Contractor,Special,METROPOLITAN AVE,KEW GARDENS,11415,7184062753,02/28/2021,Active,08/31/2010
98657,20388-2016-RHIC,1471429-DCA,Business,Renewal,MR. FIXIT HANDYMAN & HOME IMPROVEMENT CORP.,Issued,01/05/2017,01/06/2017,Home Improvement Contractor,Special,HOLLYWOOD AVE,BRONX,10461,3475822160,02/28/2021,Active,08/15/2013
135457,1346-2019-RHIC,1171748-DCA,Business,Renewal,"MICHOS, KONSTANTINOS",Issued,01/09/2019,01/10/2019,Home Improvement Contractor,Special,28TH ST,ASTORIA,11102,6467736462,02/28/2021,Active,06/24/2004
106810,33412-2016-RELE,2037379-DCA,Business,Renewal,FIX AND ACCESSORIZE LLC,Issued,12/29/2016,01/12/2017,Electronics Store,Basic,3RD AVE,NEW YORK,10016,646-359-3109,12/31/2018,Inactive,05/10/2016
183222,4785-2019-AADT,2085123-DCA,Business,Application,BILLMAR AMUSEMENTS NY PARTYWORKS INC,Issued,04/25/2019,04/26/2019,Amusement Device Temporary,Basic,KISSENA BLVD,FLUSHING,11367,6315011414,05/08/2019,Inactive,04/25/2019
137853,18809-2019-RADO,1196635-DCA,Business,Renewal,BILLMAR AMUSEMENTS NY PARTYWORKS INC,Issued,04/29/2019,04/30/2019,Amusement Device Portable,Special,W JEFRYN BLVD,DEER PARK,11729,6315011414,03/15/2020,Active,04/14/2006
198216,31037-2016-RHIC,1222682-DCA,Business,Renewal,MD & H CONSTRUCTION INC.,Issued,01/10/2017,01/11/2017,Home Improvement Contractor,Special,CRESCENT ST,BROOKLYN,11208,718-348-6201,02/28/2021,Active,04/04/2006
91771,18206-2019-RHIC,2018356-DCA,Business,Renewal,BUILDING YOUR DREAM HOME LLC,Issued,09/11/2018,04/20/2019,Home Improvement Contractor,Special,SUNRISE HWY,WANTAGH,11793,5165573506,02/28/2021,Active,02/17/2015
157572,33074-2016-RHIC,1349409-DCA,Business,Renewal,NEIMAR GROUP INC.,Issued,01/09/2017,01/10/2017,Home Improvement Contractor,Special,HIMROD ST,RIDGEWOOD,11385,6466436406,02/28/2021,Active,04/08/2010
38756,1468-2017-RHIC,1198263-DCA,Business,Renewal,"HERCULES TSIRIKONIS CONSTRUCTION CO., INC.",Issued,01/11/2017,01/12/2017,Home Improvement Contractor,Special,WOODLAWN AVE,RONKONKOMA,11779,6317371907,02/28/2021,Active,05/25/2005
42241,898-2017-RHIC,1166973-DCA,Business,Renewal,UK INTERIORS INC.,Issued,01/06/2017,01/07/2017,Home Improvement Contractor,Special,FELTER ST,GREENWOOD LAKE,10925,9179519273,02/28/2021,Active,05/20/2004
58246,31748-2016-RDEB,2027211-DCA,Business,Renewal,"SOURCE RECEIVABLES MANAGEMENT, LLC",Issued,01/10/2017,01/11/2017,Debt Collection Agency,Basic,DUNDAS DR,GREENSBORO,27407,3362863111,01/31/2021,Active,08/17/2015
142534,19025-2019-RADO,1174450-DCA,Business,Renewal,"N.Y. PARTY WORKS, INC.",Issued,04/30/2019,05/01/2019,Amusement Device Portable,Special,W JEFRYN BLVD,DEER PARK,11729,6315011414,03/15/2020,Active,04/14/2006
180151,819-2017-RHIC,1182400-DCA,Business,Renewal,"BATEN, MOHAMMED A",Issued,01/06/2017,01/07/2017,Home Improvement Contractor,Special,MCDONALD AVE,BROOKLYN,11218,3472108912,02/28/2019,Inactive,10/12/2004
122277,7196-2013-RCRD,1376365-DCA,Business,Renewal,"COLON, ANGEL A",Issued,12/20/2013,12/21/2013,Tobacco Retail Dealer,Basic,CENTRAL AVE,BROOKLYN,11221,718-417-5109,12/31/2015,Inactive,11/08/2010
47110,738-2019-RDEB,1370235-DCA,Business,Renewal,"BCA FINANCIAL SERVICES, INC.",Issued,01/07/2019,01/08/2019,Debt Collection Agency,Basic,OLD CUTLER RD,PALMETTO BAY,33157,3059092200,01/31/2021,Active,09/10/2010
29404,19897-2017-ALAU,2064392-DCA,Business,Application,NEW FRESH CLEANERS 300 CORP.,Issued,12/20/2017,01/05/2018,Laundries,Basic,RECTOR PL,NEW YORK,10280,2129457777,12/31/2021,Active,01/04/2018
49437,18018-2019-RHIC,0917133-DCA,Business,Renewal,"GEYDA, MICHAEL",Issued,04/17/2019,04/18/2019,Home Improvement Contractor,Special,NORMANDY RD,MOORESVILLE,28117,5166957495,02/28/2021,Active,02/27/2003
201226,13072-2018-RSWC,1422296-DCA,Business,Renewal,11 CARMINE TACOS LLC,Issued,09/14/2018,09/14/2018,Sidewalk Cafe,Special,CARMINE ST,NEW YORK,10014,2126272051,09/15/2020,Active,04/23/2012
196333,1761-2017-RHIC,2043387-DCA,Business,Renewal,JYOTI CONTRACTING INC.,Issued,01/12/2017,01/12/2017,Home Improvement Contractor,Special,OCEAN VIEW AVE,BROOKLYN,11235,347-260-6983,02/28/2019,Inactive,09/07/2016
123500,1596-2017-RHIC,2018702-DCA,Business,Renewal,"LOVE, FERDINAND A",Issued,01/11/2017,01/12/2017,Home Improvement Contractor,Special,PRINCETON ST,JAMAICA,11435,7182973554,02/28/2021,Active,02/26/2015
198220,11757-2017-AHIC,2057817-DCA,Business,Application,MARTINEZ HOME IMPROVEMENTS & GENERAL CONTRACTORS CORP,Issued,08/16/2017,09/06/2017,Home Improvement Contractor,Special,MARCY PL,BRONX,10452,3477480968,02/28/2021,Active,09/05/2017
46222,31989-2016-RDEB,1223521-DCA,Business,Renewal,"PALISADES COLLECTION, LLC",Issued,01/10/2017,01/11/2017,Debt Collection Agency,Basic,SYLVAN AVE,ENGLEWOOD CLIFFS,07632,2015675648,01/31/2021,Active,01/29/2013
15345,8396-2013-RCRD,1451659-DCA,Business,Renewal,NYC SMOKES & MORE INC.,Issued,12/28/2013,12/31/2013,Tobacco Retail Dealer,Basic,MACDOUGAL ST,NEW YORK,10012,212-466-3636,12/31/2021,Active,12/06/2012
197767,876-2017-RHIC,1264489-DCA,Business,Renewal,GILLOCO CONSTRUCTION INC.,Issued,01/06/2017,01/07/2017,Home Improvement Contractor,Special,W 24TH ST,NEW YORK,10011,6462082541,02/28/2021,Active,08/16/2007
98005,455-2019-RELE,1456370-DCA,Business,Renewal,CELL NATION OF 77 INC.,Issued,01/03/2019,01/04/2019,Electronics Store,Basic,ROOSEVELT AVE,JACKSON HEIGHTS,11372,6465717307,12/31/2020,Active,02/08/2013
20830,20015-2017-ALAU,2064536-DCA,Business,Application,"ACE LAUNDROMAT, INC.",Issued,12/21/2017,01/07/2018,Laundries,Basic,ARLINGTON AVE,BROOKLYN,11208,718-277-0513,12/31/2021,Active,01/06/2018
102115,721-2017-RHIC,1352845-DCA,Business,Renewal,UPPER EASTSIDE KITCHEN & BATH INC.,Issued,01/05/2017,01/06/2017,Home Improvement Contractor,Special,2ND AVE,NEW YORK,10075,2127171726,02/28/2019,Inactive,05/05/2010
110272,871-2017-RHIC,2036165-DCA,Business,Renewal,SANDHU BUILDERS 1 INC.,Issued,01/06/2017,01/07/2017,Home Improvement Contractor,Special,REDDING ST,OZONE PARK,11417,5165034241,02/28/2021,Active,04/18/2016
25670,16840-2017-ACWS,2064669-DCA,Business,Application,MERRICK MAGIC ENTERPRISES INC.,Issued,11/15/2017,01/10/2018,Car Wash,Basic,MERRICK BLVD,JAMAICA,11433,5169067578,10/31/2021,Active,01/09/2018
124515,23288-2016-ATTC,2047096-DCA,Business,Application,SHOWTIME RECOVERY CORP,Issued,12/16/2016,01/07/2017,Tow Truck Company,Special,BLONDELL AVE,BRONX,10461,3476913544,04/30/2020,Active,01/06/2017
19802,66-2018-ALAU,2064772-DCA,Business,Application,W Super Laundromat Corp,Issued,01/03/2018,01/10/2018,Laundries,Basic,E 112TH ST,NEW YORK,10029,2124647300,12/31/2019,Inactive,01/10/2018
125426,4657-2019-ASHG,2085285-DCA,Business,Application,348 EAST INC,Issued,04/23/2019,05/02/2019,Secondhand Dealer - General,Basic,E 106TH ST,NEW YORK,10029,212-289-8931,07/31/2021,Active,05/01/2019
109308,21009-2017-RSHG,1190271-DCA,Business,Renewal,"INNOVATIVE AUDIO PRODUCTS, INC.",Issued,09/06/2017,09/07/2017,Secondhand Dealer - General,Basic,E 58TH ST,NEW YORK,10155,2126344444,07/31/2021,Active,03/04/2005
48932,798-2017-RHIC,2015663-DCA,Business,Renewal,"BEN KRUPINSKI GENERAL CONTRACTOR, INC.",Issued,01/06/2017,01/10/2017,Home Improvement Contractor,Special,NEWTOWN LN,EAST HAMPTON,11937,6313243656,02/28/2019,Inactive,11/19/2014
38789,3124-2019-AELE,2083625-DCA,Business,Application,GLOW RAVE INC,Issued,03/22/2019,03/26/2019,Electronics Store,Basic,BAY PKWY,BROOKLYN,11204,9172010128,12/31/2020,Active,03/25/2019
119532,999-2017-RHIC,1311602-DCA,Business,Renewal,BRAVO BUILDING SERVICES INC.,Issued,01/07/2017,01/10/2017,Home Improvement Contractor,Special,SIOUX DR,COMMACK,11725,8665956216,02/28/2021,Active,10/10/2013
194903,3920-2016-ASHA,2036441-DCA,Business,Application,INFINITI OF BAYSIDE LLC,Issued,04/21/2016,04/22/2016,Secondhand Dealer - Auto,Basic,NORTHERN BLVD,BAYSIDE,11361,7188198400,07/31/2021,Active,04/21/2016
125846,34314-2018-RELE,2047030-DCA,Business,Renewal,ELITE WIRELESS GROUP NY LLC,Issued,12/31/2018,01/08/2019,Electronics Store,Basic,ROCKAWAY BLVD,OZONE PARK,11417,718-484-7746,12/31/2020,Active,01/04/2017
37497,356-2017-RHIC,0859929-DCA,Business,Renewal,HESCO CONSTRUCTION CORP,Issued,01/10/2017,01/11/2017,Home Improvement Contractor,Special,PARK AVE,PORT WASHINGTON,11050,5167672109,02/28/2021,Active,12/30/1996
123446,32454-2016-RHIC,0925386-DCA,Business,Renewal,NEW YORK KITCHEN DESIGN CENTER INC.,Issued,01/09/2017,01/10/2017,Home Improvement Contractor,Special,BAY ST,STATEN ISLAND,10305,7187201955,02/28/2021,Active,12/04/2002
130817,30763-2016-RHIC,1308065-DCA,Business,Renewal,"DSA REMODELING, INC.",Issued,01/09/2017,01/10/2017,Home Improvement Contractor,Special,ELM ST,STATEN ISLAND,10310,9173856526,02/28/2021,Active,01/26/2009
184807,75-2017-AHIC,2047131-DCA,Business,Application,BEN KEN CONTRACTING INC.,Issued,01/04/2017,01/07/2017,Home Improvement Contractor,Special,DONGAN HILLS AVE,STATEN ISLAND,10305,646-533-5000,02/28/2021,Active,01/06/2017
25877,7709-2018-AECD,2074333-1-DCA,Business,Application,NDL FOOD INC.,Issued,04/17/2018,06/26/2018,Electronic Cigarette Dealer,Basic,LAFAYETTE ST,NEW YORK,10013,732-609-2760,11/30/2021,Active,06/25/2018
141843,17941-2016-RHIC,1347572-DCA,Business,Renewal,"ELLIOTT, DARREN",Issued,11/04/2016,01/11/2017,Home Improvement Contractor,Special,78TH ST,HOWARD BEACH,11414,9176810001,02/28/2021,Active,03/24/2010
187280,1072-2017-RHIC,1029340-DCA,Business,Renewal,NEW YORK CONSTRUCTION & RENOVATION INC.,Issued,01/09/2017,01/10/2017,Home Improvement Contractor,Special,24TH AVE,BROOKLYN,11214,7182364542,02/28/2021,Active,03/21/2000
172811,1483-2017-RHIC,1358090-DCA,Business,Renewal,"HAJDARAJ, VALENTIN",Issued,01/11/2017,01/12/2017,Home Improvement Contractor,Special,AMETHYST ST,BRONX,10462,6463191087,02/28/2021,Active,06/08/2010
152608,598-2019-RHIC,1462310-DCA,Business,Renewal,JAT PAINTING CONSTRUCTION CORPORATION,Issued,01/04/2019,01/05/2019,Home Improvement Contractor,Special,103RD ST,CORONA,11368,3475618883,02/28/2021,Active,04/15/2013
186889,18685-2019-RPWN,0922990-DCA,Business,Renewal,PRESTAMOS PEPE INC.,Issued,04/26/2019,04/27/2019,Pawnbroker,Basic,BROADWAY,NEW YORK,10033,2127400850,04/30/2020,Active,04/30/2004
173155,156-2017-AHIC,2047076-DCA,Business,Application,COMPLETE RENOVATION & CONTRACTING CORP,Issued,01/05/2017,01/06/2017,Home Improvement Contractor,Special,84TH ST,OZONE PARK,11416,6466845911,02/28/2021,Active,01/05/2017
124295,18726-2019-RPWN,0629547-DCA,Business,Renewal,"GRAMERCY PAWNBROKERS, INC.",Issued,04/26/2019,04/27/2019,Pawnbroker,Basic,3RD AVE,NEW YORK,10010,2124772135,04/30/2020,Active,05/07/2003
174558,46-2017-RELE,2035692-DCA,Business,Renewal,5G COMMUNICATIONS CORP,Issued,01/02/2017,01/11/2017,Electronics Store,Basic,E 169TH ST,BRONX,10456,6463693117,12/31/2018,Inactive,04/07/2016
109858,18853-2016-RHIC,0953111-DCA,Business,Renewal,"GENERAL LANDSCAPING DESIGN, INC.",Issued,01/05/2017,01/06/2017,Home Improvement Contractor,Special,13TH AVE,BROOKLYN,11228,7186800985,02/28/2021,Active,12/08/2011
177344,24572-2016-RHIC,2000626-DCA,Business,Renewal,SUNRISE CONTRACTING CORP.,Issued,11/29/2016,01/06/2017,Home Improvement Contractor,Special,CONEY ISLAND AVE,BROOKLYN,11218,7188642969,02/28/2021,Active,11/12/2013
161556,1348-2019-RDPD,2050808-DCA,Business,Renewal,MYRTLE AVENUE TRADING LLC,Issued,01/09/2019,01/10/2019,Dealer In Products,Basic,MYRTLE AVE,GLENDALE,11385,3473842789,03/15/2021,Active,04/07/2017
172658,18395-2018-AHIC,2081085-DCA,Business,Application,YANKEE HOME IMPROVEMENT CONSTRUCTION INC.,Issued,12/21/2018,01/04/2019,Home Improvement Contractor,Special,VICTORY BLVD,STATEN ISLAND,10314,718 524-4362,02/28/2021,Active,01/03/2019
194411,34358-2018-RELE,1197256-DCA,Business,Renewal,"UNIVERSAL GAME DEPOT, INC.",Issued,12/31/2018,01/08/2019,Electronics Store,Basic,ROCKAWAY AVE,BROOKLYN,11212,7183458186,12/31/2020,Active,05/17/2005
130186,18869-2019-RADO,1174487-DCA,Business,Renewal,"N.Y. PARTY WORKS, INC.",Issued,04/30/2019,05/01/2019,Amusement Device Portable,Special,W JEFRYN BLVD,DEER PARK,11729,6315011414,03/15/2020,Active,04/14/2006
118634,32784-2016-RHIC,1415272-DCA,Business,Renewal,TOSCANO FLOOR DESIGN LLC,Issued,01/09/2017,01/10/2017,Home Improvement Contractor,Special,24TH ST,LONG IS CITY,11101,6464900098,02/28/2021,Active,12/07/2011
107358,1318-2017-RHIC,2011749-DCA,Business,Renewal,"WASEEM, MUHAMMAD",Issued,01/10/2017,01/11/2017,Home Improvement Contractor,Special,17TH AVE,BROOKLYN,11214,7182000973,02/28/2021,Active,08/07/2014
122080,497-2019-RHIC,1214864-DCA,Business,Renewal,DLJ HOME REMODELING INC.,Issued,01/04/2019,01/05/2019,Home Improvement Contractor,Special,114TH ST,SOUTH OZONE PARK,11420,7188434445,02/28/2021,Active,07/27/2007
156699,28223-2016-ASHG,2047159-DCA,Business,Application,"FARAJIAN, NASIM",Issued,12/27/2016,01/07/2017,Secondhand Dealer - General,Basic,FULTON ST,BROOKLYN,11201,7188021892,07/31/2021,Active,01/06/2017
97307,15662-2016-RHIC,1267144-DCA,Business,Renewal,KWAN BAE KIM,Issued,01/06/2017,01/07/2017,Home Improvement Contractor,Special,PORT WASHINGTON BLVD,PORT WASHINGTON,11050,5167679536,02/28/2019,Inactive,09/07/2007
134857,33484-2016-RELE,1379892-DCA,Business,Renewal,T-MOBILE NORTHEAST LLC,Issued,01/06/2017,01/07/2017,Electronics Store,Basic,HILLSIDE AVE,HOLLIS,11423,3026368910,12/31/2018,Inactive,12/31/2010
20105,20272-2017-ALAU,2064477-DCA,Business,Application,NEXTCLEANERS VALET LLC,Issued,12/28/2017,01/06/2018,Laundries,Basic,JOHN ST,NEW YORK,10038,91725198261,12/31/2019,Inactive,01/05/2018
109675,944-2017-RELE,0898335-DCA,Business,Renewal,"DUDDY'S ELECTRONICS & APPLIANCE CENTER, INC.",Issued,01/06/2017,01/07/2017,Electronics Store,Basic,14TH AVE,BROOKLYN,11219,718-851-9400,12/31/2020,Active,12/02/1994
55909,18797-2019-RADO,2010725-DCA,Business,Renewal,"BILLMAR AMUSEMENTS N.Y. PARTY WORKS, INC.",Issued,04/26/2019,04/27/2019,Amusement Device Portable,Special,W JEFRYN BLVD,DEER PARK,11729,6315011414,03/15/2020,Active,07/16/2014
55059,18969-2019-RHIC,2016506-DCA,Business,Renewal,EDEN CONSTRUCTION INC,Issued,04/30/2019,05/01/2019,Home Improvement Contractor,Special,LUTZ DR,VALLEY STREAM,11580,646857510,02/28/2021,Active,12/16/2014
135958,33812-2018-RDPD,1104838-DCA,Business,Renewal,"DOME INTERNATIONAL, INC.",Issued,12/27/2018,01/05/2019,Dealer In Products,Basic,15TH ST,BROOKLYN,11215,7188545500,03/15/2021,Active,03/28/2002
160309,826-2019-RHIC,1307961-DCA,Business,Renewal,OSC RENOVATIONS LLC,Issued,01/07/2019,01/08/2019,Home Improvement Contractor,Special,76TH ST,EAST ELMHURST,11370,7186147732,02/28/2021,Active,01/23/2009
122823,1487-2017-RHIC,1394218-DCA,Business,Renewal,FPA CONSTRUCTION INC,Issued,01/11/2017,01/12/2017,Home Improvement Contractor,Special,108TH ST,CORONA,11368,9176273104,02/28/2021,Active,05/27/2011
46983,1470-2017-RHIC,1390581-DCA,Business,Renewal,"HINES & ZAFFARESE LANDSCAPING, INC.",Issued,01/11/2017,01/12/2017,Home Improvement Contractor,Special,BROADWAY,NEW HYDE PARK,11040,5167473095,02/28/2021,Active,05/04/2011
2370,563-2017-RDEB,2017474-DCA,Business,Renewal,"Edgewater Consulting Group, LLC",Issued,01/05/2017,01/06/2017,Debt Collection Agency,Basic,E FORT LOWELL RD,TUCSON,85712,2538357341,01/31/2021,Active,01/21/2015
190867,1014-2017-RELE,1432971-DCA,Business,Renewal,NEXT LEVEL ELECTRONICS INC,Issued,01/07/2017,01/12/2017,Electronics Store,Basic,E 167TH ST,BRONX,10456,7184108200,12/31/2020,Active,06/06/2012
15454,17692-2017-ALAU,2064468-DCA,Business,Application,NY CITY LAUNDROMAT 1 INC.,Issued,11/22/2017,01/06/2018,Laundries,Basic,EVERGREEN AVE,BROOKLYN,11221,9173788382,12/31/2021,Active,01/05/2018
48203,1073-2017-RDEB,1464323-DCA,Business,Renewal,"FIVE LAKES AGENCY, INC.",Issued,01/09/2017,01/10/2017,Debt Collection Agency,Basic,TOWER DR,TROY,48098,8558241000,01/31/2019,Inactive,05/07/2013
111739,819-2019-RDPD,1377544-DCA,Business,Renewal,"DBG SECURITY DRUGS, INC.",Issued,01/07/2019,01/08/2019,Dealer In Products,Basic,BOSTON RD,BRONX,10469,7186546974,03/15/2021,Active,03/19/2012
24330,20252-2017-ALAU,2064687-DCA,Business,Application,"WAVE WIZARD, LLC",Issued,12/28/2017,01/10/2018,Laundries,Basic,W 6TH ST,BROOKLYN,11223,347-374-3233,12/31/2021,Active,01/09/2018
125266,2641-2017-RHIC,1074900-DCA,Business,Renewal,"FORTUNE, STEPHEN L.",Issued,01/18/2017,01/19/2017,Home Improvement Contractor,Special,E 87TH ST,BROOKLYN,11236,347-678-4014,02/28/2021,Active,03/15/2001
50968,1295-2017-RHIC,1314375-DCA,Business,Renewal,"JUDITH MILLS-JOHNSON, INC.",Issued,01/10/2017,01/11/2017,Home Improvement Contractor,Special,FANSHAW AVE,YONKERS,10705,9149680181,02/28/2019,Inactive,04/15/2009
179667,581-2017-RHIC,2029110-DCA,Business,Renewal,AVS CONSTRUCTION CORP,Issued,01/05/2017,01/06/2017,Home Improvement Contractor,Special,115TH ST,SOUTH OZONE PARK,11420,9173373215,02/28/2021,Active,10/02/2015
161400,569-2017-RELE,2002388-DCA,Business,Renewal,cell nation of queens inc,Issued,01/05/2017,01/06/2017,Electronics Store,Basic,SUTPHIN BLVD,JAMAICA,11435,6319430014,12/31/2020,Active,01/08/2014
111700,857-2017-RHIC,1255941-DCA,Business,Renewal,"MARJORIE HERSCHLER, INC.",Issued,01/06/2017,01/07/2017,Home Improvement Contractor,Special,147TH ST,JAMAICA,11436,6468521340,02/28/2021,Active,05/18/2007
183572,30959-2016-RHIC,2028628-DCA,Business,Renewal,PEDRO SANTOS,Issued,12/15/2016,01/10/2017,Home Improvement Contractor,Special,HOLLIS AVE,QUEENS VILLAGE,11429,917-239-4022,02/28/2021,Active,09/21/2015
167444,1508-2017-RHIC,1161627-DCA,Business,Renewal,"TSADIALS, SPIROS",Issued,01/11/2017,01/12/2017,Home Improvement Contractor,Special,163RD ST,FRESH MEADOWS,11365,7184452126,02/28/2021,Active,03/22/2004
11582,2257-2018-AECD,2069319-1-DCA,Business,Application,YORKK DELI & GROCERY INC.,Issued,02/09/2018,04/13/2018,Electronic Cigarette Dealer,Basic,YORK AVE,NEW YORK,10128,917-690-3268,11/30/2021,Active,04/12/2018
39552,6634-2018-AECD,2072997-1-DCA,Business,Application,825 TONY DELI GROCERY CORP.,Issued,04/04/2018,06/10/2018,Electronic Cigarette Dealer,Basic,WESTCHESTER AVE,BRONX,10455,917-455-5595,11/30/2019,Inactive,06/09/2018
123175,12344-2017-AHIC,2057851-DCA,Business,Application,NY GENERAL BUILDERS CORP.,Issued,08/30/2017,09/06/2017,Home Improvement Contractor,Special,KIRSHON AVE,STATEN ISLAND,10314,718-304-6903,02/28/2019,Inactive,09/05/2017
10360,1165-2017-RDEB,1383850-DCA,Business,Renewal,"SACOR FINANCIAL, INC.",Issued,01/09/2017,01/12/2017,Debt Collection Agency,Basic,DOUGLAS BLVD,ROSEVILLE,95661,9167733500,01/31/2021,Active,03/03/2011
171303,17710-2019-RADO,2069569-DCA,Business,Renewal,"CARNIVAL GUYS NY, INC.",Issued,04/12/2019,04/13/2019,Amusement Device Portable,Special,BEARD ST,STATEN ISLAND,10314,718-877-0854,03/15/2020,Active,04/17/2018
99262,33503-2016-RHIC,1164167-DCA,Business,Renewal,LOTUS METROPOLITAN CONSTRUCTION CORP.,Issued,12/30/2016,12/31/2016,Home Improvement Contractor,Special,OCEAN PKWY,BROOKLYN,11218,9178079600,02/28/2021,Active,04/21/2004
111759,586-2017-RELE,2030527-DCA,Business,Renewal,T-MOBILE NORTHEAST LLC,Issued,01/05/2017,01/06/2017,Electronics Store,Basic,BROADWAY,NEW YORK,10036,3026368910,12/31/2020,Active,11/17/2015
167726,18900-2019-RHIC,1266766-DCA,Business,Renewal,TSAKSOS RESTORATION INC.,Issued,04/30/2019,05/01/2019,Home Improvement Contractor,Special,76TH ST,EAST ELMHURST,11370,7189569856,02/28/2021,Active,09/04/2007
104876,2871-2019-AELE,2083481-DCA,Business,Application,ROCKAWAY MINI MALL INC,Issued,03/19/2019,03/21/2019,Electronics Store,Basic,ROCKAWAY AVE,BROOKLYN,11212,6462904351,12/31/2020,Active,03/20/2019
27570,8892-2018-RTTC,2019358-DCA,Business,Renewal,56 ST AUTO REPAIR INC,Issued,05/29/2018,01/08/2019,Tow Truck Company,Special,56TH ST,BROOKLYN,11220,7182549250,04/30/2020,Inactive,03/11/2015
116583,33402-2016-RELE,1235548-DCA,Business,Renewal,"ELECTRONICA IN QUEENS, INC.",Issued,12/29/2016,01/06/2017,Electronics Store,Basic,ROOSEVELT AVE,JACKSON HTS,11372,7184243975,12/31/2018,Inactive,08/10/2006
133615,24949-2017-RSHA,2035494-DCA,Business,Renewal,"BAY RIDGE AUTOMOTIVE COMPANY, LLC",Denied,08/03/2017,09/03/2017,Secondhand Dealer - Auto,Basic,86TH ST,BROOKLYN,11228,3475787900,07/31/2017,Inactive,04/04/2016
15227,50-2017-RDEB,1258805-DCA,Business,Renewal,"A.A. ACTION COLLECTION CO., INC.",Issued,01/09/2017,01/10/2017,Debt Collection Agency,Basic,COLUMBIA TPKE,FLORHAM PARK,07932,9737400044,01/31/2021,Active,06/14/2007
142814,1289-2017-RHIC,2016377-DCA,Business,Renewal,E&V HOME REPAIRS INC,Issued,01/10/2017,01/11/2017,Home Improvement Contractor,Special,W 204TH ST,NEW YORK,10034,9173315570,02/28/2021,Active,12/11/2014
16647,14633-2019-RDEB,1388953-DCA,Business,Renewal,GOLDSTEIN & DUN ASSOCIATES LTD.,Issued,03/25/2019,03/26/2019,Debt Collection Agency,Basic,RESEARCH DR,SHELTON,06484,2038805553,01/31/2021,Active,04/13/2011
169282,18965-2019-RPWN,2022112-DCA,Business,Renewal,STOP N PAWN INC,Issued,04/30/2019,05/01/2019,Pawnbroker,Basic,86TH ST,BROOKLYN,11209,646-996-6496,04/30/2020,Active,05/04/2015
106325,18893-2019-RADO,1315202-DCA,Business,Renewal,"BILLMAR AMUSEMENTS N.Y. PARTY WORKS, INC.",Issued,04/30/2019,05/01/2019,Amusement Device Portable,Special,W JEFRYN BLVD,DEER PARK,11729,6315011414,03/15/2020,Active,04/22/2009
43270,679-2017-RDEB,1382654-DCA,Business,Renewal,"HARVARD COLLECTION SERVICES, INC.",Issued,01/05/2017,01/06/2017,Debt Collection Agency,Basic,N ELSTON AVE,CHICAGO,60630,773-283-7500,01/31/2021,Active,02/05/2013
119527,669-2017-RHIC,1191367-DCA,Business,Renewal,ARI GROUP INC.,Issued,01/05/2017,01/12/2017,Home Improvement Contractor,Special,W 30TH ST,NEW YORK,10001,2125025353,02/28/2021,Active,07/10/2007
45166,31056-2017-RSWC,1459574-DCA,Business,Renewal,NOISETTE CAFE INC.,Issued,12/22/2017,12/22/2017,Sidewalk Cafe,Special,STEINWAY ST,ASTORIA,11103,7182190704,12/15/2019,Inactive,03/12/2013
198466,24491-2014-RCRD,1474864-DCA,Business,Renewal,"ROY, JOYA",Issued,11/14/2014,12/06/2014,Tobacco Retail Dealer,Basic,WEST   42 STREET,NEW YORK,10018,609-233-9543,12/31/2020,Active,10/04/2013
99419,12922-2016-RNWS,0833841-DCA,Business,Renewal,"PARK, YOUNG RAN",Issued,09/26/2016,09/27/2016,Newsstand,Special,BROADWAY,NEW YORK,10003,201-812-2911,09/30/2018,Inactive,11/17/2000
128022,12364-2018-AELE,2076401-DCA,Business,Application,"PEAVY, ANITA",Issued,07/24/2018,08/01/2018,Electronics Store,Basic,UTICA AVE,BROOKLYN,11213,3478792686,12/31/2020,Active,07/31/2018
43692,7059-2018-AHIC,2071081-DCA,Business,Application,WOODANDCOMPANY LLC,Issued,05/12/2018,05/13/2018,Home Improvement Contractor,Special,S 2ND ST,RONKONKOMA,11779,631 235-2179,02/28/2021,Active,05/12/2018
118256,30850-2016-RHIC,2009435-DCA,Business,Renewal,New Era Consulting Group Inc,Issued,12/15/2016,01/12/2017,Home Improvement Contractor,Special,BRIGHTON 8TH ST,BROOKLYN,11235,7187432066,02/28/2021,Active,06/10/2014
187155,10-2019-RDPD,1379733-DCA,Business,Renewal,"BARON HOSPITAL MEDICAL SUPPLY, INC.",Issued,01/01/2019,01/08/2019,Dealer In Products,Basic,FRANKLIN AVE,BROOKLYN,11205,718-486-6164,03/15/2021,Active,12/30/2010
187812,18927-2019-RHIC,1163835-DCA,Business,Renewal,"RAPID CONTRACTING, INC",Issued,04/30/2019,05/01/2019,Home Improvement Contractor,Special,45TH ST,BROOKLYN,11219,7188514249,02/28/2021,Active,12/05/2007
136385,34451-2018-RELE,1442593-DCA,Business,Renewal,"GUITAR CENTER STORES, INC.",Issued,12/31/2018,01/08/2019,Electronics Store,Basic,W 14TH ST,NEW YORK,10011,212-463-7500,12/31/2020,Active,08/27/2012
124223,531-2019-RDPD,1176636-DCA,Business,Renewal,"HYLAN MEDICINE CABINET, INC.",Issued,01/04/2019,01/05/2019,Dealer In Products,Basic,HYLAN BLVD,STATEN ISLAND,10306,7186674300,03/15/2021,Active,08/10/2004
193687,3163-2019-AHIC,2085260-DCA,Business,Application,VALENTINA'S CONTRACTING & MAINTENANCE CORP,Issued,04/30/2019,05/01/2019,Home Improvement Contractor,Special,158TH AVE,HOWARD BEACH,11414,7186828002,02/28/2021,Active,04/30/2019
109704,795-2017-RHIC,2039392-DCA,Business,Renewal,DREAM CITY CONSTRUCTION & DEVELOPMENT INC,Issued,01/06/2017,01/07/2017,Home Improvement Contractor,Special,70TH ST,GLENDALE,11385,7186280312,02/28/2021,Active,06/23/2016
156899,11108-2017-AEHD,2057873-DCA,Business,Application,APNA CELL COMPUTERS & ELECTRONICS INC,Issued,08/31/2017,09/07/2017,Electronic & Appliance Service,Basic,ROOSEVELT AVE,JACKSON HEIGHTS,11372,7188981948,06/30/2018,Inactive,09/06/2017
131783,15690-2016-RHIC,1113869-DCA,Business,Renewal,"MERIDIAN SERVICES, INC.",Issued,01/09/2017,01/10/2017,Home Improvement Contractor,Special,128TH AVE,ROSEDALE,11422,7183418665,02/28/2021,Active,06/18/2002
47901,33632-2016-RDEB,2029733-DCA,Business,Renewal,"Debt Management Holdings, LLC",Issued,01/09/2017,01/10/2017,Debt Collection Agency,Basic,DELAWARE AVE,BUFFALO,14202,7169973553,01/31/2019,Inactive,10/22/2015
105267,31994-2016-RDEB,1294062-DCA,Business,Renewal,"PALISADES ACQUISITION XVI, LLC",Issued,01/10/2017,01/11/2017,Debt Collection Agency,Basic,SYLVAN AVE,ENGLEWOOD CLIFFS,07632,2015675648,01/31/2021,Active,01/29/2013
121417,28156-2016-AEHD,2047153-DCA,Business,Application,NEW YORK SOUND & SECURITY LLC,Issued,12/09/2016,01/07/2017,Electronic & Appliance Service,Basic,ATLANTIC AVE,WOODHAVEN,11421,347-600-5878,06/30/2020,Active,01/06/2017
40026,11364-2017-AHIC,2057839-DCA,Business,Application,SMART HOME ENERGY SOURCE LLC,Issued,08/21/2017,09/06/2017,Home Improvement Contractor,Special,SMITH RD,SHIRLEY,11967,631-398-3574,02/28/2021,Active,09/05/2017
54911,2904-2019-AHIC,2085179-DCA,Business,Application,ALL STAR INSTALLER CORP,Issued,04/25/2019,04/26/2019,Home Improvement Contractor,Special,MASON CT,W HEMPSTEAD,11552,3479528110,02/28/2021,Active,04/25/2019
132391,18673-2019-RHIC,1453862-DCA,Business,Renewal,INTERIA DEVELOPMENT LLC,Issued,04/26/2019,04/27/2019,Home Improvement Contractor,Special,E 6TH ST,NEW YORK,10009,9178555428,02/28/2021,Active,01/15/2013
119610,18580-2019-RHIC,2061182-DCA,Business,Renewal,"HUISSAIN, MUKURAM",Issued,04/25/2019,04/26/2019,Home Improvement Contractor,Special,81ST ST,OZONE PARK,11416,3475286058,02/28/2021,Active,11/20/2017
184270,11715-2016-ACRD,2042527-1-DCA,Business,Application,DUANE READE,Issued,08/16/2016,08/18/2016,Tobacco Retail Dealer,Basic,GREENWICH ST,NEW YORK,10007,847-527-4516,12/31/2018,Inactive,08/17/2016
176979,28062-2016-AHIC,2047079-DCA,Business,Application,METRO STANDARDS INC,Issued,12/05/2016,01/06/2017,Home Improvement Contractor,Special,E 7TH ST,BROOKLYN,11235,3474391499,02/28/2021,Active,01/05/2017
118783,422-2019-RHIC,2050127-DCA,Business,Renewal,ARTISAN PAINTING CORP,Issued,01/03/2019,01/04/2019,Home Improvement Contractor,Special,W 5TH ST,BROOKLYN,11223,9175190298,02/28/2021,Active,03/27/2017
134246,24854-2016-RHIC,2003509-DCA,Business,Renewal,E. ROCHA CONSTRUCTION CORP,Issued,01/11/2017,01/12/2017,Home Improvement Contractor,Special,FISHER AVE,STATEN ISLAND,10307,7189660951,02/28/2021,Active,02/12/2014
160046,674-2017-RDEB,0889064-DCA,Business,Renewal,"HEALTHCARE COLLECTION SPECIALISTS, INC.",Issued,01/09/2017,01/10/2017,Debt Collection Agency,Basic,FRANKLIN TPKE,WALDWICK,07463,2014476789,01/31/2021,Active,01/17/1997
48140,1218-2017-RDEB,1424140-DCA,Business,Renewal,NATIONSTAR MORTGAGE LLC,Issued,01/09/2017,01/12/2017,Debt Collection Agency,Basic,CYPRESS WATERS BLVD,COPPELL,75019,4695492000,01/31/2021,Active,04/05/2012
175702,805-2019-RHIC,2017546-DCA,Business,Renewal,QUICKSILVER FOX LLC,Issued,01/07/2019,01/10/2019,Home Improvement Contractor,Special,E 4TH ST,NEW YORK,10009,9176973934,02/28/2021,Active,01/23/2015
150353,16121-2016-RELE,2030214-DCA,Business,Renewal,CROWN HEIGHTS WIRELESS INC.,Issued,01/09/2017,01/10/2017,Electronics Store,Basic,FRANKLIN AVE,BROOKLYN,11238,7185522877,12/31/2020,Active,11/06/2015
182001,24942-2017-RSHG,1473003-DCA,Business,Renewal,J & A AUTO CENTER INC,Denied,08/03/2017,09/03/2017,Secondhand Dealer - General,Basic,CYRUS PL,BRONX,10458,9178011391,07/31/2017,Inactive,09/13/2013
175531,33587-2016-RELE,1379850-DCA,Business,Renewal,T-MOBILE NORTHEAST LLC,Issued,12/30/2016,01/07/2017,Electronics Store,Basic,JAMAICA AVE,HOLLIS,11423,3026368910,12/31/2018,Inactive,12/31/2010
47340,1160-2017-RDEB,2000796-DCA,Business,Renewal,LEGACY ASSET MANAGEMENT CAPITAL LLC,Issued,01/09/2017,01/10/2017,Debt Collection Agency,Basic,SPRUCE ST,CEDARHURST,11516,2125967520,01/31/2019,Inactive,11/18/2013
107761,12759-2017-RDPD,1134201-DCA,Business,Renewal,"ENESLOW PEDORTHIC ENTERPRISES, INC.",Issued,03/09/2017,03/10/2017,Dealer In Products,Basic,PARK AVE S,NEW YORK,10016,2124772300,03/15/2021,Active,04/08/2003
173951,19043-2019-RPWN,2011772-DCA,Business,Renewal,"SAN MARTIN JEWELRY & PAWNSHOP, INC",Issued,05/01/2019,05/02/2019,Pawnbroker,Basic,BROADWAY,NEW YORK,10031,2124914653,04/30/2020,Active,08/08/2014
143645,990-2017-RELE,2025871-DCA,Business,Renewal,Onetel Store Inc,Issued,01/06/2017,01/12/2017,Electronics Store,Basic,MAIN ST,FLUSHING,11355,7185107000,12/31/2018,Inactive,07/20/2015
8937,1099-2017-RHIC,1076031-DCA,Business,Renewal,LANDMARK HOME IMPROVEMENTS INC.,Issued,01/09/2017,01/10/2017,Home Improvement Contractor,Special,WEST BLVD,EAST ROCKAWAY,11518,5169469939,02/28/2021,Active,03/23/2001
141785,33647-2016-RELE,1343449-DCA,Business,Renewal,T-MOBILE NORTHEAST LLC,Issued,12/30/2016,01/07/2017,Electronics Store,Basic,JAMAICA AVE,JAMAICA,11432,800-927-9801,12/31/2020,Active,01/22/2010
194252,32544-2016-RELE,2017737-DCA,Business,Renewal,"EBEN-EZER WINNER WIRELESS VIDEO, INC",Issued,12/22/2016,01/11/2017,Electronics Store,Basic,FORT HAMILTON PKWY,BROOKLYN,11219,718-438-4887,12/31/2020,Active,01/29/2015
